PANDORA
1 67395U 80229J   26066.57857639  .00000000  00000-0  37770-3 0    01
2 67395  97.8031  66.8329 0006751 101.4996 354.7223 14.87862152    03
